STARLINK-36122          
1 66952U 25286AD  25357.16668980 -.02023633  00000+0 -18785-1 0  9997
2 66952  53.1593 358.1542 0000877  77.4896 180.1999 15.69947624  3662
HULIANWANG DIGUI-114    
1 66953U 25287A   25354.38141962  .00000019  00000+0  30336-5 0  9995
2 66953  86.4960 343.3747 0009673 185.0352 175.0710 13.66161866  1572
HULIANWANG DIGUI-115    
1 66954U 25287B   25354.59996245  .00000016  00000+0 -97933-6 0  9996
2 66954  86.4975 343.2967 0009498 182.0064 178.1058 13.66603826  1604
HULIANWANG DIGUI-116    
1 66955U 25287C   25354.67187073  .00000120  00000+0  12369-3 0  9999
2 66955  86.4918 343.2556 0008660 174.2680 185.8579 13.67009251  1610
HULIANWANG DIGUI-117    
1 66956U 25287D   25352.62166759  .00000026  00000+0  10922-4 0  9990
2 66956  86.4971 344.0126 0007676 176.3616 183.7600 13.67770338  1332
HULIANWANG DIGUI-118    
1 66957U 25287E   25355.03488252  .00000128  00000+0  13223-3 0  9993
2 66957  86.4946 343.1304 0005472 170.9065 189.2194 13.67510110  1668
CZ-6A R/B               
1 66958U 25287F   25356.81722404  .00000087  00000+0  48160-4 0  9994
2 66958  86.5062 342.2695 0107196  71.8586 289.4225 13.94921346  1941
STARLINK-35887          
1 66959U 25288A   25357.16668980 -.01917812  00000+0 -14802-1 0  9992
2 66959  43.0006 103.4307 0001655 270.9838 109.8542 15.74375728  3508
STARLINK-35879          
1 66960U 25288B   25357.16668980 -.01920310  00000+0 -14819-1 0  9999
2 66960  43.0006 103.4257 0001472 269.5066 113.2334 15.74385667  3509
STARLINK-35761          
1 66961U 25288C   25357.16668980 -.01920073  00000+0 -14820-1 0  9998
2 66961  43.0005 103.4211 0001722 264.9923 119.6771 15.74378325  3506
STARLINK-35874          
1 66962U 25288D   25357.16668980 -.01908795  00000+0 -14724-1 0  9999
2 66962  43.0007 103.4156 0001446 275.4222 111.1596 15.74374455  3501
STARLINK-36133          
1 66963U 25288E   25357.16668980 -.01908432  00000+0 -14723-1 0  9997
2 66963  43.0006 103.4112 0001373 272.7175 115.7842 15.74372522  3506
